satname,norad_id,inclination_deg,eccentricity,mean_motion_rev_per_day,perigee_km,apogee_km,l1,l2
STARLINK-1234,45190,53.0339,0.0001237,15.82908465,321.3916400381431,323.0493084772752,1 45190U 20012N   26182.85720849  .00132027  00000+0  60243-3 0  9998,2 45190  53.0339 120.0214 0001237 155.7385 204.3695 15.82908465353829
STARLINK-1269,45197,53.1528,0.0003027,15.37013189,452.87892355691474,457.0156727910289,1 45197U 20012V   26182.27976508  .00054158  00000+0  14740-2 0  9994,2 45197  53.1528 229.9839 0003027   9.1368 350.9691 15.37013189352330
STARLINK-1154,45198,53.039,0.0004362,15.65582253,368.62050740703944,374.50894719393636,1 45198U 20012W   26182.29202894  .00054454  00000+0  53345-3 0  9991,2 45198  53.0390 179.6665 0004362  47.6168 312.5215 15.65582253352984
STARLINK-1199,45201,53.1531,0.0005659,15.36967601,451.2154960598482,458.94933379366284,1 45201U 20012Z   26182.38096944  .00051085  00000+0  13931-2 0  9996,2 45201  53.1531 213.7798 0005659   5.2010 354.9051 15.36967601352597
STARLINK-1209,45206,53.0355,0.0001371,15.72981556,349.4585595081089,351.3035191544932,1 45206U 20012AE  26182.12941444  .00085233  00000+0  61111-3 0  9993,2 45206  53.0355 139.9656 0001371 125.6774 234.4372 15.72981556352636
STARLINK-1231,45212,53.0367,0.0002324,15.29354014,476.14888912464903,479.3355017746935,1 45212U 20012AL  26182.80557713  .00031669  00000+0  11051-2 0  9998,2 45212  53.0367 208.0334 0002324  69.8068 290.3181 15.29354014352646
STARLINK-1271,45217,53.1533,0.0004804,15.37196521,451.1216413136226,457.68634670066604,1 45217U 20012AR  26182.37566856  .00064419  00000+0  17382-2 0  9995,2 45217  53.1533 213.9008 0004804   8.4735 351.6349 15.37196521352592
STARLINK-1191,45222,53.1513,0.0003647,15.41363718,439.5962322875848,444.5709011689569,1 45222U 20012AW  26182.29331999  .00060927  00000+0  14358-2 0  9990,2 45222  53.1513 186.5981 0003647 348.5872  11.5050 15.41363718352977
STARLINK-1212,45223,53.0378,0.0001466,15.71862278,352.58791444326926,354.56165233816046,1 45223U 20012AX  26182.90105209  .00074256  00000+0  55959-3 0  9995,2 45223  53.0378 151.6471 0001466 111.1967 248.9207 15.71862278353495
STARLINK-1215,45225,53.1529,0.0005372,15.372921,450.4504996941687,457.7910774622169,1 45225U 20012AZ  26182.30783169  .00047912  00000+0  12942-2 0  9991,2 45225  53.1529 188.4605 0005372  10.0984 350.0127 15.37292100352903
STARLINK-1221,45227,53.0641,0.0002797,15.46159374,426.069940814461,429.87727908966826,1 45227U 20012BB  26182.91334289  .00062235  00000+0  12471-2 0  9997,2 45227  53.0641  86.7754 0002797  42.4614 317.6609 15.46159374354351
STARLINK-1222,45228,53.0513,0.000384,15.56820504,394.2642054324451,399.4674075878447,1 45228U 20012BC  26182.20266067  .00040931  00000+0  56438-3 0  9999,2 45228  53.0513 155.6612 0003840  65.9337 294.2075 15.56820504353268
STARLINK-1226,45229,53.1531,0.0005415,15.46698138,422.7083424441289,430.0776484291864,1 45229U 20012BD  26182.71547400  .00057784  00000+0  11376-2 0  9994,2 45229  53.1531 181.0348 0005415  13.5319 346.5833 15.46698138352984
STARLINK-1227,45230,53.152,0.0005221,15.4679068,422.569086592679,429.67409341235907,1 45230U 20012BE  26182.72384454  .00061434  00000+0  12045-2 0  9996,2 45230  53.1520 181.0811 0005221   7.8147 352.2941 15.46790680353103
STARLINK-1246,45235,53.1521,0.0004523,15.37244091,451.1727434767672,457.3533325511553,1 45235U 20012BK  26182.41514934  .00036210  00000+0  98382-3 0  9998,2 45235  53.1521 228.9674 0004523 337.4170  22.6634 15.37244091352419
STARLINK-1270,45237,53.0378,0.0001677,15.70900097,355.1939295792099,357.4526675633506,1 45237U 20012BM  26182.95545838  .00070152  00000+0  55098-3 0  9996,2 45237  53.0378 153.2241 0001677 118.1512 241.9675 15.70900097353471
STARLINK-1279,45360,53.0328,0.0003632,15.8384632,317.14258157265976,322.00779970794065,1 45360U 20019A   26182.68764108  .00134927  00000+0  58859-3 0  9992,2 45360  53.0328 255.4076 0003632   5.7077 354.3986 15.83846320348575
STARLINK-1301,45361,53.0316,0.0005389,15.85606178,311.0117047667791,318.22515656995347,1 45361U 20019B   26183.00002315  .00184022  00000+0  73237-3 0  9993,2 45361  53.0316 255.8856 0005389   2.9667  24.8107 15.85606178  6019
STARLINK-1262,45366,53.1552,0.0002367,15.36193959,455.75843957403595,458.99437162024606,1 45366U 20019G   26182.85729902  .00048810  00000+0  13659-2 0  9993,2 45366  53.1552 353.5129 0002367 181.0061 179.0938 15.36193959347259
STARLINK-1273,45367,53.0435,9.1e-05,15.60203719,386.4524852053146,387.6837525369492,1 45367U 20019H   26180.81470628  .00090636  00000+0  10864-2 0  9994,2 45367  53.0435 334.8141 0000910 145.3989 214.7083 15.60203719347317
STARLINK-1277,45369,53.0417,0.000115,15.69410271,359.80964360698636,361.359549574202,1 45369U 20019K   26181.79896276  .00061054  00000+0  51133-3 0  9992,2 45369  53.0417 322.6522 0001150   8.2521 351.8514 15.69410271347575
STARLINK-1281,45370,53.1578,0.0002608,15.36999794,453.2049197359711,456.76907721357475,1 45370U 20019L   26182.85581934  .00049048  00000+0  13374-2 0  9997,2 45370  53.1578 353.0132 0002608 153.3213 206.7925 15.36999794347266
STARLINK-1300,45374,53.1595,0.0002303,15.37607343,451.61366164916944,454.7601694446703,1 45374U 20019Q   26182.85904973  .00048980  00000+0  13097-2 0  9999,2 45374  53.1595 352.8096 0002303 172.9931 187.1106 15.37607343347261
STARLINK-1302,45375,53.0454,0.0002018,15.69848351,357.97125087563563,360.69049290873045,1 45375U 20019R   26182.78933664  .00072447  00000+0  59412-3 0  9998,2 45375  53.0454 313.5719 0002018 125.2096 234.9109 15.69848351347789
STARLINK-1304,45376,53.042,0.0001381,15.65610242,370.5521597331044,372.4164051313128,1 45376U 20019S   26182.08767737  .00053892  00000+0  52763-3 0  9993,2 45376  53.0420 319.0423 0001381 171.8406 188.2631 15.65610242347648
STARLINK-1305,45377,53.0378,0.0005191,15.74657166,342.1166369023749,349.0972278529689,1 45377U 20019T   26182.48530018  .00079233  00000+0  52900-3 0  9998,2 45377  53.0378 294.1195 0005191 335.8084  24.2690 15.74657166348031
STARLINK-1319,45379,53.0358,0.0002188,15.8198969,323.3478698759418,326.2810814416898,1 45379U 20019V   26182.73470913  .00122789  00000+0  58568-3 0  9996,2 45379  53.0358 283.4227 0002188   2.7762 357.3271 15.81989690348206
STARLINK-1266,45383,53.0449,0.0002582,15.68114976,362.5540710880996,366.03586295586865,1 45383U 20019Z   26182.70411352  .00055347  00000+0  48957-3 0  9996,2 45383  53.0449 300.5389 0002582 332.7045  27.3835 15.68114976347953
STARLINK-1267,45384,53.0429,0.0001425,15.72388172,351.1146722966996,353.0327823539865,1 45384U 20019AA  26182.45844850  .00085885  00000+0  63143-3 0  9996,2 45384  53.0429 292.7129 0001425  35.7748 324.3364 15.72388172348045
STARLINK-1272,45386,53.0387,0.0001857,15.77057921,337.5341653376063,340.028828867431,1 45386U 20019AC  26182.47814246  .00091226  00000+0  54730-3 0  9994,2 45386  53.0387 270.6326 0001857  33.7640 326.3497 15.77057921348355
STARLINK-1274,45387,53.0182,0.0005302,15.66389761,365.6673207296981,372.822244371916,1 45387U 20019AD  26182.50909310  .00131722  00000+0  12300-2 0  9998,2 45387  53.0182 271.1545 0005302 278.1187  81.9226 15.66389761348349
STARLINK-1280,45388,53.0323,0.000546,15.88429586,303.03532307194746,310.3351489536726,1 45388U 20019AE  26183.00002315  .00158837  00000+0  55231-3 0  9991,2 45388  53.0323 273.3909 0005460 357.8655 168.9080 15.88429586  5905
STARLINK-1283,45389,53.0371,0.0003359,15.74668465,343.3162735020778,347.83326306801155,1 45389U 20019AF  26182.93497621  .00091068  00000+0  60650-3 0  9994,2 45389  53.0371 267.3857 0003359 332.5568  27.5272 15.74668465348440
STARLINK-1284,45390,53.0399,0.0003318,15.7281286,348.6294715646718,353.0948354029242,1 45390U 20019AG  26182.47079406  .00072417  00000+0  52434-3 0  9990,2 45390  53.0399 293.8869 0003318  54.8151 305.3177 15.72812860348029
STARLINK-1297,45395,53.0405,0.000193,15.75760131,341.1719329622538,343.7660868820849,1 45395U 20019AM  26182.79672069  .00089934  00000+0  57139-3 0  9993,2 45395  53.0405 291.2300 0001930  13.1594 346.9475 15.75760131347275
STARLINK-1307,45397,53.0534,9e-05,15.58302739,391.9595719005156,393.1782989688936,1 45397U 20019AP  26182.74943422  .00036378  00000+0  47570-3 0  9996,2 45397  53.0534 299.8925 0000900 318.5617  41.5326 15.58302739347798
STARLINK-1255,45399,53.0327,8.02e-05,15.68030078,363.99757301610043,365.0790981399259,1 45399U 20019AR  26182.45409004  .00063782  00000+0  56483-3 0  9991,2 45399  53.0327 267.5238 0000802 226.5509 133.5440 15.68030078348209
STARLINK-1260,45404,53.1542,0.0002364,15.40205105,443.89035149117353,447.1165687007069,1 45404U 20019AW  26182.78529440  .00055701  00000+0  13658-2 0  9999,2 45404  53.1542 315.5225 0002364 197.6998 162.3926 15.40205105347495
STARLINK-1263,45405,53.1573,0.0001529,15.37070648,453.7322543229084,455.8217594262105,1 45405U 20019AX  26181.11121677  .00052148  00000+0  14175-2 0  9993,2 45405  53.1573 325.1457 0001529 215.9662 144.1239 15.37070648347211
STARLINK-1265,45406,53.156,3.04e-05,15.40629346,444.04332430470185,444.4581254783743,1 45406U 20019AY  26182.77212995  .00057352  00000+0  13862-2 0  9995,2 45406  53.1560 315.5108 0000304 194.8025 165.2971 15.40629346347498
STARLINK-1278,45408,53.0394,0.0002049,15.76696344,338.43185889628876,341.18487290723533,1 45408U 20019BA  26182.49064052  .00086224  00000+0  52614-3 0  9994,2 45408  53.0394 291.5069 0002049  29.4214 330.6921 15.76696344347780
STARLINK-1296,45412,53.1563,0.0001704,15.40877742,442.3550967857227,444.67991664161127,1 45412U 20019BE  26182.93845336  .00068522  00000+0  16383-2 0  9993,2 45412  53.1563 314.3846 0001704 195.8804 164.2148 15.40877742347529
STARLINK-1309,45414,53.0593,0.0002045,15.75262788,342.50883839782455,345.25814477888343,1 45414U 20019BG  26182.46557971  .00079105  00000+0  51478-3 0  9992,2 45414  53.0593 285.8419 0002045  32.0063 328.1080 15.75262788347846
